start=new Date('2022-09-13T00:00:00.000Z').valueOf();
sats=[{"SEMIMAJOR_AXIS":"6925.322","CENTER_NAME":"EARTH","REV_AT_EPOCH":"7317","PERIAPSIS":"546.256","SITE":"AFETR","ELEMENT_SET_NO":"999","OBJECT_ID":"2021-041B","EPHEMERIS_TYPE":"0","REF_FRAME":"TEME","DECAY_DATE":null,"TLE_LINE2":"2 48554  53.0530  91.1162 0001345  99.2020 260.9121 15.06408580 73175","NORAD_CAT_ID":"48554","FILE":"3570509","TLE_LINE1":"1 48554U 21041B   22255.62638627  .00003818  00000-0  27502-3 0  9999","RCS_SIZE":"LARGE","BSTAR":"0.00027502000000","LAUNCH_DATE":"2021-05-15","OBJECT_TYPE":"PAYLOAD","APOAPSIS":"548.119","RA_OF_ASC_NODE":"91.1162","EPOCH":"2022-09-12T15:01:59.773728","MEAN_ANOMALY":"260.9121","ARG_OF_PERICENTER":"99.2020","MEAN_MOTION_DOT":"0.00003818","PERIOD":"95.592","INCLINATION":"53.0530","MEAN_ELEMENT_THEORY":"SGP4","GP_ID":"212429810","TIME_SYSTEM":"UTC","MEAN_MOTION_DDOT":"0.0000000000000","COUNTRY_CODE":"US","OBJECT_NAME":"STARLINK-2139","MEAN_MOTION":"15.06408580","ECCENTRICITY":"0.00013450","CLASSIFICATION_TYPE":"U"},{"MEAN_MOTION":"15.06419100","ECCENTRICITY":"0.00016240","CLASSIFICATION_TYPE":"U","COUNTRY_CODE":"US","OBJECT_NAME":"STARLINK-2145","TIME_SYSTEM":"UTC","MEAN_MOTION_DDOT":"0.0000000000000","INCLINATION":"53.0539","MEAN_ELEMENT_THEORY":"SGP4","GP_ID":"212430060","MEAN_MOTION_DOT":"0.00001132","PERIOD":"95.591","MEAN_ANOMALY":"285.4992","ARG_OF_PERICENTER":"74.6176","RA_OF_ASC_NODE":"101.2862","EPOCH":"2022-09-12T14:07:34.722912","APOAPSIS":"548.280","BSTAR":"0.00009483900000","OBJECT_TYPE":"PAYLOAD","LAUNCH_DATE":"2021-05-15","TLE_LINE1":"1 48555U 21041C   22255.58859633  .00001132  00000-0  94839-4 0  9992","RCS_SIZE":"LARGE","NORAD_CAT_ID":"48555","FILE":"3570509","REF_FRAME":"TEME","DECAY_DATE":null,"TLE_LINE2":"2 48555  53.0539 101.2862 0001624  74.6176 285.4992 15.06419100 73026","OBJECT_ID":"2021-041C","EPHEMERIS_TYPE":"0","PERIAPSIS":"546.030","SITE":"AFETR","ELEMENT_SET_NO":"999","SEMIMAJOR_AXIS":"6925.290","REV_AT_EPOCH":"7302","CENTER_NAME":"EARTH"},{"MEAN_ELEMENT_THEORY":"SGP4","INCLINATION":"53.0542","GP_ID":"212398459","TIME_SYSTEM":"UTC","MEAN_MOTION_DDOT":"0.0000000000000","COUNTRY_CODE":"US","OBJECT_NAME":"STARLINK-2151","ECCENTRICITY":"0.00014760","MEAN_MOTION":"15.06396230","CLASSIFICATION_TYPE":"U","RA_OF_ASC_NODE":"104.0203","EPOCH":"2022-09-11T23:31:49.404288","MEAN_ANOMALY":"284.1352","ARG_OF_PERICENTER":"75.9801","PERIOD":"95.592","MEAN_MOTION_DOT":"0.00001319","FILE":"3570189","NORAD_CAT_ID":"48556","RCS_SIZE":"LARGE","TLE_LINE1":"1 48556U 21041D   22254.98043292  .00001319  00000-0  10746-3 0  9993","BSTAR":"0.00010746000000","OBJECT_TYPE":"PAYLOAD","LAUNCH_DATE":"2021-05-15","APOAPSIS":"548.247","REV_AT_EPOCH":"7293","CENTER_NAME":"EARTH","SEMIMAJOR_AXIS":"6925.360","ELEMENT_SET_NO":"999","SITE":"AFETR","PERIAPSIS":"546.203","EPHEMERIS_TYPE":"0","OBJECT_ID":"2021-041D","REF_FRAME":"TEME","DECAY_DATE":null,"TLE_LINE2":"2 48556  53.0542 104.0203 0001476  75.9801 284.1352 15.06396230 72938"},{"MEAN_MOTION_DDOT":"0.0000000000000","TIME_SYSTEM":"UTC","GP_ID":"212431034","MEAN_ELEMENT_THEORY":"SGP4","INCLINATION":"53.0542","CLASSIFICATION_TYPE":"U","ECCENTRICITY":"0.00013350","MEAN_MOTION":"15.06420176","OBJECT_NAME":"STARLINK-2155","COUNTRY_CODE":"US","EPOCH":"2022-09-12T13:58:17.363424","RA_OF_ASC_NODE":"91.3053","PERIOD":"95.591","MEAN_MOTION_DOT":"0.00000762","ARG_OF_PERICENTER":"84.9845","MEAN_ANOMALY":"275.1296","RCS_SIZE":"LARGE","TLE_LINE1":"1 48557U 21041E   22255.58214541  .00000762  00000-0  69987-4 0  9991","NORAD_CAT_ID":"48557","FILE":"3570509","APOAPSIS":"548.076","OBJECT_TYPE":"PAYLOAD","LAUNCH_DATE":"2021-05-15","BSTAR":"0.00006998700000","SITE":"AFETR","ELEMENT_SET_NO":"999","PERIAPSIS":"546.227","CENTER_NAME":"EARTH","REV_AT_EPOCH":"7316","SEMIMAJOR_AXIS":"6925.287","TLE_LINE2":"2 48557  53.0542  91.3053 0001335  84.9845 275.1296 15.06420176 73162","REF_FRAME":"TEME","DECAY_DATE":null,"EPHEMERIS_TYPE":"0","OBJECT_ID":"2021-041E"},{"COUNTRY_CODE":"US","OBJECT_NAME":"STARLINK-2166","ECCENTRICITY":"0.00012560","MEAN_MOTION":"15.06400707","CLASSIFICATION_TYPE":"U","MEAN_ELEMENT_THEORY":"SGP4","INCLINATION":"53.0558","GP_ID":"212430311","TIME_SYSTEM":"UTC","MEAN_MOTION_DDOT":"0.0000000000000","MEAN_ANOMALY":"268.5965","ARG_OF_PERICENTER":"91.5167","PERIOD":"95.592","MEAN_MOTION_DOT":"-0.00001033","RA_OF_ASC_NODE":"90.1456","EPOCH":"2022-09-12T20:15:09.689760","BSTAR":"-0.00005048100000","OBJECT_TYPE":"PAYLOAD","LAUNCH_DATE":"2021-05-15","APOAPSIS":"548.081","FILE":"3570509","NORAD_CAT_ID":"48558","RCS_SIZE":"LARGE","TLE_LINE1":"1 48558U 21041F   22255.84386215 -.00001033  00000-0 -50481-4 0  9992","EPHEMERIS_TYPE":"0","OBJECT_ID":"2021-041F","DECAY_DATE":null,"REF_FRAME":"TEME","TLE_LINE2":"2 48558  53.0558  90.1456 0001256  91.5167 268.5965 15.06400707 72343","CENTER_NAME":"EARTH","REV_AT_EPOCH":"7234","SEMIMAJOR_AXIS":"6925.346","ELEMENT_SET_NO":"999","SITE":"AFETR","PERIAPSIS":"546.342"},{"GP_ID":"212430561","MEAN_ELEMENT_THEORY":"SGP4","INCLINATION":"53.0551","MEAN_MOTION_DDOT":"0.0000000000000","TIME_SYSTEM":"UTC","OBJECT_NAME":"STARLINK-2167","COUNTRY_CODE":"US","CLASSIFICATION_TYPE":"U","MEAN_MOTION":"15.06398987","ECCENTRICITY":"0.00013170","EPOCH":"2022-09-12T19:31:20.122176","RA_OF_ASC_NODE":"90.2691","ARG_OF_PERICENTER":"86.7003","MEAN_ANOMALY":"273.4137","MEAN_MOTION_DOT":"0.00000329","PERIOD":"95.592","NORAD_CAT_ID":"48559","FILE":"3570509","TLE_LINE1":"1 48559U 21041G   22255.81342734  .00000329  00000-0  40993-4 0  9990","RCS_SIZE":"LARGE","OBJECT_TYPE":"PAYLOAD","LAUNCH_DATE":"2021-05-15","BSTAR":"0.00004099300000","APOAPSIS":"548.129","SEMIMAJOR_AXIS":"6925.352","CENTER_NAME":"EARTH","REV_AT_EPOCH":"7319","PERIAPSIS":"546.305","SITE":"AFETR","ELEMENT_SET_NO":"999","OBJECT_ID":"2021-041G","EPHEMERIS_TYPE":"0","TLE_LINE2":"2 48559  53.0551  90.2691 0001317  86.7003 273.4137 15.06398987 73198","REF_FRAME":"TEME","DECAY_DATE":null},{"MEAN_ELEMENT_THEORY":"SGP4","INCLINATION":"53.0546","GP_ID":"212431305","TIME_SYSTEM":"UTC","MEAN_MOTION_DDOT":"0.0000000000000","COUNTRY_CODE":"US","OBJECT_NAME":"STARLINK-2186","ECCENTRICITY":"0.00011990","MEAN_MOTION":"15.06393912","CLASSIFICATION_TYPE":"U","RA_OF_ASC_NODE":"60.4777","EPOCH":"2022-09-12T19:52:39.027936","MEAN_ANOMALY":"265.5379","ARG_OF_PERICENTER":"94.5747","PERIOD":"95.593","MEAN_MOTION_DOT":"-0.00001722","NORAD_CAT_ID":"48561","FILE":"3570509","RCS_SIZE":"LARGE","TLE_LINE1":"1 48561U 21041J   22255.82822949 -.00001722  00000-0 -96741-4 0  9997","BSTAR":"-0.00009674100000","LAUNCH_DATE":"2021-05-15","OBJECT_TYPE":"PAYLOAD","APOAPSIS":"548.063","CENTER_NAME":"EARTH","REV_AT_EPOCH":"7362","SEMIMAJOR_AXIS":"6925.367","SITE":"AFETR","ELEMENT_SET_NO":"999","PERIAPSIS":"546.402","OBJECT_ID":"2021-041J","EPHEMERIS_TYPE":"0","REF_FRAME":"TEME","DECAY_DATE":null,"TLE_LINE2":"2 48561  53.0546  60.4777 0001199  94.5747 265.5379 15.06393912 73620"},{"TLE_LINE2":"2 48562  53.0544  91.1228 0001317  91.6857 268.4283 15.06394778 73170","DECAY_DATE":null,"REF_FRAME":"TEME","OBJECT_ID":"2021-041K","EPHEMERIS_TYPE":"0","PERIAPSIS":"546.317","ELEMENT_SET_NO":"999","SITE":"AFETR","SEMIMAJOR_AXIS":"6925.365","REV_AT_EPOCH":"7317","CENTER_NAME":"EARTH","APOAPSIS":"548.142","OBJECT_TYPE":"PAYLOAD","LAUNCH_DATE":"2021-05-15","BSTAR":"0.00024011000000","TLE_LINE1":"1 48562U 21041K   22255.62270573  .00003296  00000-0  24011-3 0  9992","RCS_SIZE":"LARGE","FILE":"3570509","NORAD_CAT_ID":"48562","MEAN_MOTION_DOT":"0.00003296","PERIOD":"95.592","ARG_OF_PERICENTER":"91.6857","MEAN_ANOMALY":"268.4283","EPOCH":"2022-09-12T14:56:41.775072","RA_OF_ASC_NODE":"91.1228","CLASSIFICATION_TYPE":"U","MEAN_MOTION":"15.06394778","ECCENTRICITY":"0.00013170","OBJECT_NAME":"STARLINK-2187","COUNTRY_CODE":"US","MEAN_MOTION_DDOT":"0.0000000000000","TIME_SYSTEM":"UTC","GP_ID":"212431535","INCLINATION":"53.0544","MEAN_ELEMENT_THEORY":"SGP4"},{"BSTAR":"0.00016501000000","OBJECT_TYPE":"PAYLOAD","LAUNCH_DATE":"2021-05-15","APOAPSIS":"548.132","NORAD_CAT_ID":"48563","FILE":"3570509","TLE_LINE1":"1 48563U 21041L   22255.84017399  .00002178  00000-0  16501-3 0  9995","RCS_SIZE":"LARGE","OBJECT_ID":"2021-041L","EPHEMERIS_TYPE":"0","DECAY_DATE":null,"REF_FRAME":"TEME","TLE_LINE2":"2 48563  53.0527  90.1439 0001347  74.7093 285.4045 15.06404670 73204","SEMIMAJOR_AXIS":"6925.334","REV_AT_EPOCH":"7320","CENTER_NAME":"EARTH","PERIAPSIS":"546.266","SITE":"AFETR","ELEMENT_SET_NO":"999","COUNTRY_CODE":"US","OBJECT_NAME":"STARLINK-2188","MEAN_MOTION":"15.06404670","ECCENTRICITY":"0.00013470","CLASSIFICATION_TYPE":"U","MEAN_ELEMENT_THEORY":"SGP4","INCLINATION":"53.0527","GP_ID":"212429811","TIME_SYSTEM":"UTC","MEAN_MOTION_DDOT":"0.0000000000000","MEAN_ANOMALY":"285.4045","ARG_OF_PERICENTER":"74.7093","MEAN_MOTION_DOT":"0.00002178","PERIOD":"95.592","RA_OF_ASC_NODE":"90.1439","EPOCH":"2022-09-12T20:09:51.032736"},{"OBJECT_ID":"2021-041M","EPHEMERIS_TYPE":"0","DECAY_DATE":null,"REF_FRAME":"TEME","TLE_LINE2":"2 48564  53.0557  90.1988 0001196  83.5496 276.5629 15.06393730 73207","CENTER_NAME":"EARTH","REV_AT_EPOCH":"7320","SEMIMAJOR_AXIS":"6925.368","SITE":"AFETR","ELEMENT_SET_NO":"999","PERIAPSIS":"546.405","BSTAR":"-0.00003826500000","OBJECT_TYPE":"PAYLOAD","LAUNCH_DATE":"2021-05-15","APOAPSIS":"548.061","FILE":"3570509","NORAD_CAT_ID":"48564","RCS_SIZE":"LARGE","TLE_LINE1":"1 48564U 21041M   22255.83280902 -.00000851  00000-0 -38265-4 0  9997","MEAN_ANOMALY":"276.5629","ARG_OF_PERICENTER":"83.5496","PERIOD":"95.593","MEAN_MOTION_DOT":"-0.00000851","RA_OF_ASC_NODE":"90.1988","EPOCH":"2022-09-12T19:59:14.699328","COUNTRY_CODE":"US","OBJECT_NAME":"STARLINK-2190","ECCENTRICITY":"0.00011960","MEAN_MOTION":"15.06393730","CLASSIFICATION_TYPE":"U","INCLINATION":"53.0557","MEAN_ELEMENT_THEORY":"SGP4","GP_ID":"212430061","TIME_SYSTEM":"UTC","MEAN_MOTION_DDOT":"0.0000000000000"}];
